0 SL-16 DEB
1 36031U 96051N   13282.21173756  .00007222  00000-0  32227-2 0  7081
2 36031 070.8652 357.9719 0020150 001.8334 028.8115 14.22909984206147
0 SL-16 DEB
1 36031U 96051N   13285.24113700  .00005242  00000-0  23443-2 0  7103
2 36031 070.8659 351.4817 0020321 357.4217 066.8265 14.22941237206574
0 SL-16 DEB
1 36031U 96051N   13288.83674889  .00006760  00000-0  30134-2 0  7113
2 36031 070.8669 343.7806 0020956 350.1850 127.7219 14.22984717207087
0 SL-16 DEB
1 36031U 96051N   13291.13941787  .00006356  00000-0  28331-2 0  7122
2 36031 070.8666 338.8486 0021369 346.3114 044.2150 14.23013604207415
0 SL-16 DEB
1 36031U 96051N   13293.18316698  .00007019  00000-0  31243-2 0  7130
2 36031 070.8663 334.4697 0021616 342.9603 074.3856 14.23038055207704
0 SL-16 DEB
1 36031U 96051N   13295.51531650  .00009169  00000-0  40703-2 0  7146
2 36031 070.8668 329.4724 0022042 339.2184 142.1915 14.23068947208031
